0 PRISMA (MANGO)
1 36599U 10028B   13282.50289346  .00000092  00000-0  31686-4 0  2101
2 36599 098.4927 095.9105 0085964 147.6393 213.0120 14.55018117174708
0 PRISMA (MANGO)
1 36599U 10028B   13282.77796721  .00000092  00000-0  31686-4 0  2111
2 36599 098.4928 096.1904 0086015 146.8173 213.8468 14.55018316174742
0 PRISMA (MANGO)
1 36599U 10028B   13283.19057807  .00000092  00000-0  31686-4 0  2124
2 36599 098.4927 096.6097 0085984 145.5130 215.1692 14.55018544174806
0 PRISMA (MANGO)
1 36599U 10028B   13283.39688316  .00000092  00000-0  31686-4 0  2132
2 36599 098.4927 096.8191 0086009 144.9228 215.7683 14.55018684174837
0 PRISMA (MANGO)
1 36599U 10028B   13283.74072492  .00000092  00000-0  31686-4 0  2144
2 36599 098.4928 097.1687 0086028 143.9047 216.8010 14.55018929174884
0 PRISMA (MANGO)
1 36599U 10028B   13283.80949319  .00000092  00000-0  31686-4 0  2153
2 36599 098.4925 097.2383 0086008 143.7023 217.0050 14.55018960174898
0 PRISMA (MANGO)
1 36599U 10028B   13284.15333515  .00000092  00000-0  31686-4 0  2168
2 36599 098.4928 097.5880 0085948 142.5850 218.1381 14.55019238174947
0 PRISMA (MANGO)
1 36599U 10028B   13284.49717627  .00000092  00000-0  31686-4 0  2176
2 36599 098.4926 097.9374 0085904 141.5966 219.1389 14.55019532174997
0 PRISMA (MANGO)
1 36599U 10028B   13285.52870048  .00000092  00000-0  31686-4 0  2202
2 36599 098.4930 098.9862 0085994 138.4638 222.3157 14.55020332175142
0 PRISMA (MANGO)
1 36599U 10028B   13285.80377302  .00000092  00000-0  31686-4 0  2219
2 36599 098.4931 099.2657 0086004 137.6456 223.1429 14.55020542175189
0 PRISMA (MANGO)
1 36599U 10028B   13286.21638248  .00000092  00000-0  31686-4 0  2225
2 36599 098.4933 099.6855 0086122 136.3378 224.4689 14.55020868175245
0 PRISMA (MANGO)
1 36599U 10028B   13286.56022334  .00000092  00000-0  31686-4 0  2237
2 36599 098.4932 100.0347 0086085 135.3056 225.5129 14.55021103175296
0 PRISMA (MANGO)
1 36599U 10028B   13286.83529579  .00000092  00000-0  31686-4 0  2241
2 36599 098.4935 100.3147 0086170 134.5027 226.3260 14.55021327175332
0 PRISMA (MANGO)
1 36599U 10028B   13287.17913688  .00000092  00000-0  31686-4 0  2258
2 36599 098.4936 100.6645 0086190 133.3654 227.4780 14.55021611175384
0 PRISMA (MANGO)
1 36599U 10028B   13287.52297708  .00000092  00000-0  31686-4 0  2266
2 36599 098.4935 101.0139 0086181 132.3748 228.4796 14.55021905175439
0 PRISMA (MANGO)
1 36599U 10028B   13287.79804923  .00000092  00000-0  31686-4 0  2279
2 36599 098.4938 101.2937 0086189 131.5413 229.3221 14.55022141175478
0 PRISMA (MANGO)
1 36599U 10028B   13288.14188986  .00000092  00000-0  31686-4 0  2284
2 36599 098.4938 101.6434 0086261 130.4433 230.4333 14.55022401175527
0 PRISMA (MANGO)
1 36599U 10028B   13288.48572983  .00000092  00000-0  31686-4 0  2296
2 36599 098.4937 101.9926 0086245 129.4559 231.4315 14.55022699175579
0 PRISMA (MANGO)
1 36599U 10028B   13288.82956995  .00000092  00000-0  31686-4 0  2305
2 36599 098.4939 102.3422 0086297 128.4429 232.4563 14.55023007175625
0 PRISMA (MANGO)
1 36599U 10028B   13289.17341033  .00000092  00000-0  31686-4 0  2316
2 36599 098.4938 102.6919 0086259 127.3115 233.6001 14.55023304175671
0 PRISMA (MANGO)
1 36599U 10028B   13289.51724965  .00000092  00000-0  31686-4 0  2324
2 36599 098.4936 103.0415 0086217 126.3167 234.6042 14.55023638175727
0 PRISMA (MANGO)
1 36599U 10028B   13289.79232117  .00000092  00000-0  31686-4 0  2338
2 36599 098.4938 103.3212 0086200 125.4849 235.4435 14.55023918175766
0 PRISMA (MANGO)
1 36599U 10028B   13290.13616097  .00000092  00000-0  31686-4 0  2342
2 36599 098.4939 103.6708 0086228 124.3782 236.5612 14.55024205175819
0 PRISMA (MANGO)
1 36599U 10028B   13290.41123251  .00000092  00000-0  31686-4 0  2359
2 36599 098.4937 103.9501 0086202 123.5728 237.3744 14.55024446175850
0 PRISMA (MANGO)
1 36599U 10028B   13290.75507171  .00000092  00000-0  31686-4 0  2364
2 36599 098.4938 104.2995 0086277 122.5772 238.3803 14.55024781175907
0 PRISMA (MANGO)
1 36599U 10028B   13290.82383951  .00000092  00000-0  31686-4 0  2371
2 36599 098.4938 104.3694 0086298 122.3785 238.5807 14.55024840175912
0 PRISMA (MANGO)
1 36599U 10028B   13291.16767914  .00000092  00000-0  31686-4 0  2385
2 36599 098.4939 104.7191 0086303 121.2592 239.7101 14.55025088175960
0 PRISMA (MANGO)
1 36599U 10028B   13291.51151742  .00000092  00000-0  31686-4 0  2391
2 36599 098.4938 105.0688 0086179 120.2768 240.6986 14.55025455176016
0 PRISMA (MANGO)
1 36599U 10028B   13291.85535599  .00000092  00000-0  31686-4 0  2406
2 36599 098.4941 105.4183 0086240 119.2524 241.7336 14.55025914176067
0 PRISMA (MANGO)
1 36599U 10028B   13292.13042717  .00000092  00000-0  31686-4 0  2414
2 36599 098.4940 105.6979 0086383 118.3757 242.6186 14.55026157176105
0 PRISMA (MANGO)
1 36599U 10028B   13292.47426598  .00000092  00000-0  31686-4 0  2425
2 36599 098.4938 106.0469 0086327 117.3683 243.6351 14.55026461176154
0 PRISMA (MANGO)
1 36599U 10028B   13292.88687184  .00000092  00000-0  31686-4 0  2431
2 36599 098.4941 106.4665 0086371 116.1422 244.8705 14.55026896176212
0 PRISMA (MANGO)
1 36599U 10028B   13293.16194255  .00000092  00000-0  31686-4 0  2446
2 36599 098.4939 106.7460 0086423 115.3164 245.7027 14.55027119176257
0 PRISMA (MANGO)
1 36599U 10028B   13293.50578054  .00000092  00000-0  31686-4 0  2458
2 36599 098.4938 107.0953 0086369 114.2777 246.7475 14.55027406176307
0 PRISMA (MANGO)
1 36599U 10028B   13293.84961880  .00000092  00000-0  31686-4 0  2469
2 36599 098.4939 107.4451 0086434 113.2459 247.7878 14.55027714176359
0 PRISMA (MANGO)
1 36599U 10028B   13294.12468866  .00000092  00000-0  31686-4 0  2478
2 36599 098.4937 107.7247 0086477 112.3389 248.7008 14.55028089176398
0 PRISMA (MANGO)
1 36599U 10028B   13294.46852610  .00000092  00000-0  31686-4 0  2480
2 36599 098.4935 108.0739 0086445 111.3285 249.7180 14.55028469176445
0 PRISMA (MANGO)
1 36599U 10028B   13294.81236355  .00000092  00000-0  31686-4 0  2492
2 36599 098.4939 108.4237 0086488 110.3107 250.7417 14.55028790176492
0 PRISMA (MANGO)
1 36599U 10028B   13295.15620133  .00000092  00000-0  31686-4 0  2503
2 36599 098.4940 108.7739 0086581 109.2076 251.8532 14.55029119176542
0 PRISMA (MANGO)
1 36599U 10028B   13295.50003832  .00000092  00000-0  31686-4 0  2514
2 36599 098.4938 109.1231 0086510 108.1666 252.8977 14.55029450176593
0 PRISMA (MANGO)
1 36599U 10028B   13295.84387576  .00000092  00000-0  31686-4 0  2522
2 36599 098.4939 109.4728 0086562 107.0937 253.9771 14.55029786176646
0 PRISMA (MANGO)
1 36599U 10028B   13296.18771344  .00000092  00000-0  31686-4 0  2531
2 36599 098.4937 109.8227 0086589 105.9255 255.1511 14.55030063176692
